title,storeTypes,commonName,postalCode,formattedAddress,extendedAddress,drivingDirections,latitude,longitude,phoneData,operatingHours,chargingInfo,amenities,imageName,url
음성  -  대소,수퍼차저,,"""27660""",충청북도 음성군 대성로 77번길25-18,,"https://maps.google.com/maps?daddr=36.977227,127.48903",36.977227,127.48903,긴급 출동 서비스: 080 617 1399,,충전최대 250kW로 연중 무휴 이용 가능한 8 수퍼차저,beverage|restrooms,31723.png,https://www.tesla.com/ko_kr/findus/location/supercharger/31723
성남  -  서현,수퍼차저,,,경기도 성남시 황새울로 311번길28,,"https://maps.google.com/maps?daddr=37.38618,127.12026",37.38618,127.12026,긴급 출동 서비스: 080 617 1399,,충전최대 250kW로 연중 무휴 이용 가능한 9 수퍼차저,beverage|restrooms,31715.png,https://www.tesla.com/ko_kr/findus/location/supercharger/31715
부산  -  하단 아트몰링(무료주차30분),수퍼차저,,"""49311""",부산광역시 낙동남로 1413,,"https://maps.google.com/maps?daddr=35.106746,128.967081",35.106746,128.967081,긴급 출동 서비스: 080 617 1399,,충전최대 250kW로 연중 무휴 이용 가능한 6 수퍼차저,restaurants|shopping|beverage|restrooms,31739.png,https://www.tesla.com/ko_kr/findus/location/supercharger/31739
서울  -  여의도 CCMM,수퍼차저,,"""07241""",서울특별시 여의공원로101,,"https://maps.google.com/maps?daddr=37.52888,126.92485",37.52888,126.92485,긴급 출동 서비스: 080 617 1399,,충전최대 250kW로 연중 무휴 이용 가능한 6 수퍼차저,restaurants|wifi|beverage|restrooms,31975.png,https://www.tesla.com/ko_kr/findus/location/supercharger/31975
안양  -  평촌 (주차비 여부),수퍼차저,,"""14066""",경기도 안양시 관평로170번길33,,"https://maps.google.com/maps?daddr=37.39283,126.9618",37.39283,126.9618,긴급 출동 서비스: 080 617 1399,,충전최대 250kW로 연중 무휴 이용 가능한 6 수퍼차저,restaurants|wifi|shopping|beverage|restrooms,gyeonggianyangsupercharger.png,https://www.tesla.com/ko_kr/findus/location/supercharger/gyeonggianyangsupercharger
화성  -  서동탄 카페 아스타나,수퍼차저,,"""18385""",경기도 화성시 효행로1203-8,,"https://maps.google.com/maps?daddr=37.2188,127.05464",37.2188,127.05464,긴급 출동 서비스: 080 617 1399,,충전최대 250kW로 연중 무휴 이용 가능한 8 수퍼차저,restaurants|beverage|restrooms,31704.png,https://www.tesla.com/ko_kr/findus/location/supercharger/31704
에피소드 서초,수퍼차저,,"""06628""",서울특별시 서초동1338-5 에피소드 서초 B5F,서초2동,"https://maps.google.com/maps?daddr=37.4897,127.0299",37.4897,127.0299,긴급 출동 서비스: 080 617 1399,,충전최대 250kW로 연중 무휴 이용 가능한 6 수퍼차저,beverage|restrooms,32447.png,https://www.tesla.com/ko_kr/findus/location/supercharger/32447
서울  -  강동,수퍼차저,,"""05203""",서울특별시 고덕비즈밸리로  435,,"https://maps.google.com/maps?daddr=37.567944,127.160551",37.567944,127.160551,,,충전최대 250kW로 연중 무휴 이용 가능한 9 수퍼차저,,31707.png,https://www.tesla.com/ko_kr/findus/location/supercharger/31707
서울  -  고척 아이파크몰(아이파크몰 앱 주중 무료주차 월 300분 제공),수퍼차저,,"""08226""",서울특별시 경인로43길49,,"https://maps.google.com/maps?daddr=37.49904,126.85962",37.49904,126.85962,긴급 출동 서비스: 080 617 1399,,충전최대 250kW로 연중 무휴 이용 가능한 8 수퍼차저,restaurants|shopping|beverage|restrooms,31866.png,https://www.tesla.com/ko_kr/findus/location/supercharger/31866
이천,수퍼차저,,"""17406""",경기도 이천시 사실로984,모가면,"https://maps.google.com/maps?daddr=37.1964,127.4459",37.1964,127.4459,긴급 출동 서비스: 080 617 1399,,충전최대 250kW로 연중 무휴 이용 가능한 8 수퍼차저,restaurants|lodging|beverage|restrooms,31728.png,https://www.tesla.com/ko_kr/findus/location/supercharger/31728
구미 - 형곡,수퍼차저,,"""39316""",경상북도 구미시 새마을로74-4,,"https://maps.google.com/maps?daddr=36.108726,128.346656",36.108726,128.346656,긴급 출동 서비스: 080 617 1399,,충전최대 250kW로 연중 무휴 이용 가능한 8 수퍼차저,restaurants|wifi|restrooms,31725.png,https://www.tesla.com/ko_kr/findus/location/supercharger/31725
광주  -  유스퀘어,수퍼차저,,"""61937""",광주광역시 무진대로904,,"https://maps.google.com/maps?daddr=35.1594,126.8823",35.1594,126.8823,,,충전최대 250kW로 연중 무휴 이용 가능한 6 수퍼차저,restaurants|wifi|shopping|beverage|restrooms,31748.png,https://www.tesla.com/ko_kr/findus/location/supercharger/31748
하남  -  미사 ,수퍼차저,,"""12912""",경기도 하남시 망월동1143,,"https://maps.google.com/maps?daddr=37.56781,127.195891",37.56781,127.195891,긴급 출동 서비스: 080 617 1399,,충전최대 250kW로 연중 무휴 이용 가능한 6 수퍼차저,restaurants|beverage|restrooms,31741.png,https://www.tesla.com/ko_kr/findus/location/supercharger/31741
서울  -  중랑,수퍼차저,,"""353353""",서울특별시 망우로  02087,,"https://maps.google.com/maps?daddr=37.5983,127.0903",37.5983,127.0903,긴급 출동 서비스: 080 617 1399,,충전최대 250kW로 연중 무휴 이용 가능한 4 수퍼차저,restaurants|shopping|beverage|restrooms,31835.png,https://www.tesla.com/ko_kr/findus/location/supercharger/31835
서울 - 상암,수퍼차저,,"""03927""",서울특별시 매봉산로80,,"https://maps.google.com/maps?daddr=37.5787,126.8946",37.5787,126.8946,긴급 출동 서비스: 080 617 1399,,충전최대 250kW로 연중 무휴 이용 가능한 6 수퍼차저,restaurants|beverage|restrooms,MapoSangAmsupercharger.png,https://www.tesla.com/ko_kr/findus/location/supercharger/MapoSangAmsupercharger
서울 - 성수 디타워,수퍼차저,,"""04769""",서울특별시 왕십리 로83-21,,"https://maps.google.com/maps?daddr=37.5452,127.0441",37.5452,127.0441,긴급 출동 서비스: 080 617 1399,,충전최대 250kW로 연중 무휴 이용 가능한 9 수퍼차저,restaurants|beverage|restrooms,seongsudtowerq322.png,https://www.tesla.com/ko_kr/findus/location/supercharger/seongsudtowerq322
오산  -  모다아울렛,수퍼차저,,"""18111""",경기도 오산시 경기대로822-22,,"https://maps.google.com/maps?daddr=37.191249,127.047317",37.191249,127.047317,,,충전최대 250kW로 연중 무휴 이용 가능한 6 수퍼차저,shopping|restrooms,31740.png,https://www.tesla.com/ko_kr/findus/location/supercharger/31740
청주  -  강서 (강서 IC 진출입 / 20분 회차 + 업장 이용 시 무료 주차),수퍼차저,,"""28381""",충청북도 청주시 가포산로191,,"https://maps.google.com/maps?daddr=36.6155,127.4209",36.6155,127.4209,,,충전최대 250kW로 연중 무휴 이용 가능한 12 수퍼차저,restaurants|beverage|restrooms,seocheongjureindeercoffee.png,https://www.tesla.com/ko_kr/findus/location/supercharger/seocheongjureindeercoffee
음성  -  금왕,수퍼차저,,"""27638""",충청북도 음성군 대금로1356,,"https://maps.google.com/maps?daddr=36.985514,127.583415",36.985514,127.583415,긴급 출동 서비스: 080 617 1399,,충전최대 250kW로 연중 무휴 이용 가능한 8 수퍼차저,,33628.png,https://www.tesla.com/ko_kr/findus/location/supercharger/33628
진주  -  모다아울렛,수퍼차저,,"""52845""",경상남도 진주시 삼일로 95번길46,,"https://maps.google.com/maps?daddr=35.13275,128.0987",35.13275,128.0987,긴급 출동 서비스: 080 617 1399,,충전최대 250kW로 연중 무휴 이용 가능한 6 수퍼차저,restaurants|shopping|beverage|restrooms,31746.png,https://www.tesla.com/ko_kr/findus/location/supercharger/31746
수원 - AK Plaza,수퍼차저,,"""16622""",경기도 수원시 덕영대로924,,"https://maps.google.com/maps?daddr=37.2641,127.0015",37.2641,127.0015,,,충전최대 250kW로 연중 무휴 이용 가능한 6 수퍼차저,restaurants|shopping|lodging|beverage|restrooms,31859.png,https://www.tesla.com/ko_kr/findus/location/supercharger/31859
양양  -  물치항,수퍼차저,,"""25061""",강원도 양양군 동해대로3594,,"https://maps.google.com/maps?daddr=38.15772,128.609248",38.15772,128.609248,,,충전최대 250kW로 연중 무휴 이용 가능한 6 수퍼차저,restaurants|beverage|restrooms,32985.png,https://www.tesla.com/ko_kr/findus/location/supercharger/32985
원주  -  AK플라자,수퍼차저,,"""26437""",강원도 원주시 봉화로1,,"https://maps.google.com/maps?daddr=37.3462,127.9273",37.3462,127.9273,,,충전최대 250kW로 연중 무휴 이용 가능한 9 수퍼차저,restaurants|shopping|beverage|restrooms,34605.png,https://www.tesla.com/ko_kr/findus/location/supercharger/34605
광명  -  광명역,수퍼차저,,"""14347""",경기도 광명시 일직동310-1,,"https://maps.google.com/maps?daddr=37.4161,126.8823",37.4161,126.8823,긴급 출동 서비스: 080 617 1399,,충전최대 250kW로 연중 무휴 이용 가능한 8 수퍼차저,restrooms,34662.png,https://www.tesla.com/ko_kr/findus/location/supercharger/34662
서울 - 건설회관,수퍼차저,,"""06050""",서울특별시 강남구 언주로711,,"https://maps.google.com/maps?daddr=37.517759,127.035257",37.517759,127.035257,,,충전최대 250kW로 연중 무휴 이용 가능한 9 수퍼차저,restaurants|beverage|restrooms,59442.png,https://www.tesla.com/ko_kr/findus/location/supercharger/59442
서울  -  성수 팩토리얼,수퍼차저,,"""04782""",서울특별시 성수동2가314-11,,"https://maps.google.com/maps?daddr=37.544316,127.054652",37.544316,127.054652,,,충전최대 250kW로 연중 무휴 이용 가능한 3 수퍼차저,shopping|beverage|restrooms,teslaseoulseongsub.png,https://www.tesla.com/ko_kr/findus/location/supercharger/teslaseoulseongsub
인천  -  모다아울렛(인천점),수퍼차저,,"""22769""",인천광역시 북항로32번안길50,,"https://maps.google.com/maps?daddr=37.5104,126.6471",37.5104,126.6471,,,충전최대 250kW로 연중 무휴 이용 가능한 4 수퍼차저,restaurants|shopping|beverage|restrooms,32562.png,https://www.tesla.com/ko_kr/findus/location/supercharger/32562
용인  -  양지로지스틱스,수퍼차저,,"""17158""",경기도 용인시 양지924,,"https://maps.google.com/maps?daddr=37.230133,127.297673",37.230133,127.297673,,,충전최대 250kW로 연중 무휴 이용 가능한 8 수퍼차저,restaurants|beverage|restrooms,34658.png,https://www.tesla.com/ko_kr/findus/location/supercharger/34658
영월,수퍼차저,,"""230887""",강원도 영월군 방절리782,,"https://maps.google.com/maps?daddr=37.179537,128.446919",37.179537,128.446919,긴급 출동 서비스: 080 617 1399,,충전최대 250kW로 연중 무휴 이용 가능한 8 수퍼차저,restaurants|wifi|shopping|beverage|restrooms,33632.png,https://www.tesla.com/ko_kr/findus/location/supercharger/33632
태백 365 세이프타운,수퍼차저,,"""26047""",강원도 태백시 평화길15,,"https://maps.google.com/maps?daddr=37.099385,129.022325",37.099385,129.022325,긴급 출동 서비스: 080 617 1399,,충전최대 250kW로 연중 무휴 이용 가능한 8 수퍼차저,wifi|beverage|restrooms,33633.png,https://www.tesla.com/ko_kr/findus/location/supercharger/33633
평택  -  AK플라자,수퍼차저,,"""17917""",경기도 평택시 평택로51,,"https://maps.google.com/maps?daddr=36.990015,127.086708",36.990015,127.086708,긴급 출동 서비스: 080 617 1399,,충전최대 250kW로 연중 무휴 이용 가능한 6 수퍼차저,restaurants|shopping|beverage|restrooms,33019.png,https://www.tesla.com/ko_kr/findus/location/supercharger/33019
여주  -  썬밸리호텔,수퍼차저,,"""12634""",경기도 여주시 연양동414,,"https://maps.google.com/maps?daddr=37.292869,127.659924",37.292869,127.659924,긴급 출동 서비스: 080 617 1399,,충전최대 250kW로 연중 무휴 이용 가능한 6 수퍼차저,restaurants|lodging|beverage|restrooms,31729.png,https://www.tesla.com/ko_kr/findus/location/supercharger/31729
울산 모다아울렛,수퍼차저,,"""44248""",울산광역시 진장유통로78-6,,"https://maps.google.com/maps?daddr=35.5776,129.3574",35.5776,129.3574,,,충전최대 250kW로 연중 무휴 이용 가능한 6 수퍼차저,restaurants|shopping|beverage|restrooms,31864.png,https://www.tesla.com/ko_kr/findus/location/supercharger/31864
서울  -  대치 KT&G,수퍼차저,,"""06176""",서울특별시 영동대로 416,,"https://maps.google.com/maps?daddr=37.507,127.0654",37.507,127.0654,긴급 출동 서비스: 080 617 1399,,충전최대 250kW로 연중 무휴 이용 가능한 9 수퍼차저,restaurants|beverage|restrooms,superchargetseouldaechi.png,https://www.tesla.com/ko_kr/findus/location/supercharger/superchargetseouldaechi
성남  -  분당 한국잡월드,수퍼차저,,"""13553""",경기도 성남시 분당구 분당수서로 501,,"https://maps.google.com/maps?daddr=37.377468,127.107456",37.377468,127.107456,,,충전최대 250kW로 연중 무휴 이용 가능한 8 수퍼차저,restaurants|beverage|restrooms,31782.png,https://www.tesla.com/ko_kr/findus/location/supercharger/31782
강릉  -  세인트존스,수퍼차저,,"""25467""",강원도 강릉시 창해로307,,"https://maps.google.com/maps?daddr=37.791648,128.919332",37.791648,128.919332,긴급 출동 서비스: 080 617 1399,,충전최대 250kW로 연중 무휴 이용 가능한 6 수퍼차저,restaurants|wifi|beverage|restrooms,gangneungsaintjohnshotelkr.png,https://www.tesla.com/ko_kr/findus/location/supercharger/gangneungsaintjohnshotelkr
강릉  -  테라로사,수퍼차저,,"""25623""",강릉구 정면 현천길25,구정면,"https://maps.google.com/maps?daddr=37.695699,128.893146",37.695699,128.893146,긴급 출동 서비스: 080 617 1399,,충전최대 250kW로 연중 무휴 이용 가능한 8 수퍼차저,wifi|beverage|restrooms,Gangneungterarosa.png,https://www.tesla.com/ko_kr/findus/location/supercharger/Gangneungterarosa
가평  -  설악 (주차비 여부),수퍼차저,,"""12466""",경기도 가평군 미사리 로3,,"https://maps.google.com/maps?daddr=37.686474,127.493905",37.686474,127.493905,긴급 출동 서비스: 080 617 1399,,충전최대 115kW로 연중 무휴 이용 가능한 6 수퍼차저,restaurants|beverage,gapyeongsupercharger.png,https://www.tesla.com/ko_kr/findus/location/supercharger/gapyeongsupercharger
고양  -  소노캄,수퍼차저,,"""10394""",경기도 고양시 태극로20,,"https://maps.google.com/maps?daddr=37.662176,126.751046",37.662176,126.751046,긴급 출동 서비스: 080 617 1399,,충전최대 115kW로 연중 무휴 이용 가능한 4 수퍼차저,restaurants|wifi|lodging|beverage|restrooms,goyangsupercharger.png,https://www.tesla.com/ko_kr/findus/location/supercharger/goyangsupercharger
인천  -  강화 씨사이드리조트,수퍼차저,,"""23052""",인천광역시 길상면 장흥로217,,"https://maps.google.com/maps?daddr=37.619053,126.501212",37.619053,126.501212,긴급 출동 서비스: 080 617 1399,,충전최대 250kW로 연중 무휴 이용 가능한 8 수퍼차저,restaurants|beverage|restrooms,4005316.png,https://www.tesla.com/ko_kr/findus/location/supercharger/4005316
경주  -  보문 라한셀렉트,수퍼차저,,"""38117""",경상북도 경주시 보문로338,,"https://maps.google.com/maps?daddr=35.849609,129.278714",35.849609,129.278714,긴급 출동 서비스: 080 617 1399,,충전최대 250kW로 연중 무휴 이용 가능한 6 수퍼차저,restaurants|wifi|shopping|lodging|beverage|restrooms,gyeongjusupercharger.png,https://www.tesla.com/ko_kr/findus/location/supercharger/gyeongjusupercharger
경기 광주  -  나인블럭,수퍼차저,,"""12768""",경기도 광주시 경충대로1967,,"https://maps.google.com/maps?daddr=37.4033939,127.2226678",37.4033939,127.2226678,긴급 출동 서비스: 080 617 1399,,충전최대 250kW로 연중 무휴 이용 가능한 6 수퍼차저,wifi|beverage|restrooms,gyeonggigwangjusupercharger.png,https://www.tesla.com/ko_kr/findus/location/supercharger/gyeonggigwangjusupercharger
경주  -  신라명가,수퍼차저,,"""38173""",경상북도 경주시 탑동676-1,,"https://maps.google.com/maps?daddr=35.820667,129.21335",35.820667,129.21335,긴급 출동 서비스: 080 617 1399,,충전최대 250kW로 연중 무휴 이용 가능한 8 수퍼차저,restaurants|restrooms,teslagyeongjub.png,https://www.tesla.com/ko_kr/findus/location/supercharger/teslagyeongjub
강릉  -  라카이샌드파인,수퍼차저,,"""25460""",강원도 강릉시 해안로536,,"https://maps.google.com/maps?daddr=37.8054,128.9039",37.8054,128.9039,긴급 출동 서비스: 080 617 1399,,충전최대 250kW로 연중 무휴 이용 가능한 8 수퍼차저,restaurants|wifi|lodging|beverage|restrooms,gangneungsupercharger.png,https://www.tesla.com/ko_kr/findus/location/supercharger/gangneungsupercharger
고양  -  도내동,수퍼차저,,"""10553""",경기도 고양시 권율대로449,,"https://maps.google.com/maps?daddr=37.632676,126.864885",37.632676,126.864885,긴급 출동 서비스: 080 617 1399,,충전최대 250kW로 연중 무휴 이용 가능한 8 수퍼차저,wifi|beverage|restrooms,teslagoyangdonaedongsupercharger.png,https://www.tesla.com/ko_kr/findus/location/supercharger/teslagoyangdonaedongsupercharger
고양 - 행주,수퍼차저,,"""10440""",경기도 고양시 자유로487,,"https://maps.google.com/maps?daddr=37.6044,126.8218",37.6044,126.8218,긴급 출동 서비스: 080 617 1399,,충전최대 250kW로 연중 무휴 이용 가능한 6 수퍼차저,restaurants|beverage|restrooms,31758.png,https://www.tesla.com/ko_kr/findus/location/supercharger/31758
수원  -  광교 하동,수퍼차저,,"""16512""",경기도 수원시 법조로149번길269,,"https://maps.google.com/maps?daddr=37.29354,127.070488",37.29354,127.070488,긴급 출동 서비스: 080 617 1399,,충전최대 250kW로 연중 무휴 이용 가능한 3 수퍼차저,,gwanggyosupercharger.png,https://www.tesla.com/ko_kr/findus/location/supercharger/gwanggyosupercharger
광양  -  LF스퀘어,수퍼차저,,"""57764""",전라남도 광양시 순광로466,,"https://maps.google.com/maps?daddr=34.9620597,127.56498053",34.9620597,127.56498053,긴급 출동 서비스: 080 617 1399,,충전최대 250kW로 연중 무휴 이용 가능한 6 수퍼차저,restaurants|wifi|shopping|beverage|restrooms,gwangyangsupercharger.png,https://www.tesla.com/ko_kr/findus/location/supercharger/gwangyangsupercharger
군포  -  AK 플라자,수퍼차저,,"""15809""",경기도 군포시 엘에스로143,,"https://maps.google.com/maps?daddr=37.3715,126.9444",37.3715,126.9444,긴급 출동 서비스: 080 617 1399,,충전최대 250kW로 연중 무휴 이용 가능한 8 수퍼차저,restaurants|shopping|beverage|restrooms,gunpogeumjeongakplaza.png,https://www.tesla.com/ko_kr/findus/location/supercharger/gunpogeumjeongakplaza
인천  -  영종 그랜드하얏트 서관,수퍼차저,,"""22382""",인천광역시인천광역시 영종해안남로321번길 208,,"https://maps.google.com/maps?daddr=37.44026,126.45615",37.44026,126.45615,긴급 출동 서비스: 080 617 1399,,충전최대 250kW로 연중 무휴 이용 가능한 3 수퍼차저,restaurants|wifi|lodging|beverage|restrooms,incheonyeongjonggrandhyatthotelwestkr.png,https://www.tesla.com/ko_kr/findus/location/supercharger/incheonyeongjonggrandhyatthotelwestkr
광주  -  첨단,수퍼차저,,"""62279""",광주광역시 임방울대로826번길19-20,,"https://maps.google.com/maps?daddr=35.21622,126.84927",35.21622,126.84927,긴급 출동 서비스: 080 617 1399,,충전최대 250kW로 연중 무휴 이용 가능한 6 수퍼차저,shopping|beverage|restrooms,gwangjucheomdansupercharger.png,https://www.tesla.com/ko_kr/findus/location/supercharger/gwangjucheomdansupercharger
광주  -  홀리데이인,수퍼차저,,"""61955""",광주광역시 상무누리 로55,,"https://maps.google.com/maps?daddr=35.147318,126.837855",35.147318,126.837855,긴급 출동 서비스: 080 617 1399,,충전최대 115kW로 연중 무휴 이용 가능한 6 수퍼차저,restaurants|wifi|lodging|beverage|restrooms,gwangjusupercharger.png,https://www.tesla.com/ko_kr/findus/location/supercharger/gwangjusupercharger
김해  -  주촌,수퍼차저,,,경상남도 김해시 주촌면 천곡리1566-3,,"https://maps.google.com/maps?daddr=35.230323,128.841529",35.230323,128.841529,긴급 출동 서비스: 080 617 1399,,충전최대 250kW로 연중 무휴 이용 가능한 8 수퍼차저,restrooms,31714.png,https://www.tesla.com/ko_kr/findus/location/supercharger/31714
대구  -  수성 (주차비 여부),수퍼차저,,"""42203""",대구 광역시 수성못6길18,,"https://maps.google.com/maps?daddr=35.82735,128.62395",35.82735,128.62395,긴급 출동 서비스: 080 617 1399,,충전최대 250kW로 연중 무휴 이용 가능한 8 수퍼차저,restaurants|wifi|shopping|beverage|restrooms,daegususeongsupercharger.png,https://www.tesla.com/ko_kr/findus/location/supercharger/daegususeongsupercharger
군산  -  대야,수퍼차저,,"""54063""",전라북도 군산시 번영로1321,,"https://maps.google.com/maps?daddr=35.936893,126.855644",35.936893,126.855644,긴급 출동 서비스: 080 617 1399,,충전최대 115kW로 연중 무휴 이용 가능한 8 수퍼차저,beverage|restrooms,gunsansupercharger.png,https://www.tesla.com/ko_kr/findus/location/supercharger/gunsansupercharger
당진,수퍼차저,,"""343822""",충청남도 당진시 가학리590-3,,"https://maps.google.com/maps?daddr=36.909436,126.694185",36.909436,126.694185,긴급 출동 서비스: 080 617 1399,,충전최대 115kW로 연중 무휴 이용 가능한 4 수퍼차저,beverage|restrooms,dangjinsupercharger.png,https://www.tesla.com/ko_kr/findus/location/supercharger/dangjinsupercharger
인천  -  영종 그랜드하얏트 동관,수퍼차저,,"""22382""",인천광역시인천광역시 영종해안남로 321번길208,,"https://maps.google.com/maps?daddr=37.44087,126.45719",37.44087,126.45719,긴급 출동 서비스: 080 617 1399,,충전최대 250kW로 연중 무휴 이용 가능한 3 수퍼차저,restaurants|lodging|beverage|restrooms,teslakrincheonyeongjonggrandhyatthoteleast.png,https://www.tesla.com/ko_kr/findus/location/supercharger/teslakrincheonyeongjonggrandhyatthoteleast
논산  -  라온빌리지,수퍼차저,,"""33010""",충청남도 논산시 동안로 1113번길40,,"https://maps.google.com/maps?daddr=36.129263,127.129656",36.129263,127.129656,긴급 출동 서비스: 080 617 1399,,충전최대 115kW로 연중 무휴 이용 가능한 6 수퍼차저,restaurants|wifi|lodging|beverage|restrooms,nonsansupercharger.png,https://www.tesla.com/ko_kr/findus/location/supercharger/nonsansupercharger
남양주  -  화도 디스플레인,수퍼차저,,"""12163""",경기도 남양주화도읍  소래비로48-24,화도읍,"https://maps.google.com/maps?daddr=37.6547,127.3198",37.6547,127.3198,긴급 출동 서비스: 080 617 1399,,충전최대 250kW로 연중 무휴 이용 가능한 6 수퍼차저,wifi|beverage|restrooms,Namyangjuhwadothisplane.png,https://www.tesla.com/ko_kr/findus/location/supercharger/Namyangjuhwadothisplane
대구  -  EXCO,수퍼차저,,"""41515""",대구 광역시 엑스코로10,,"https://maps.google.com/maps?daddr=35.906399,128.614205",35.906399,128.614205,긴급 출동 서비스: 080 617 1399,,충전최대 115kW로 연중 무휴 이용 가능한 6 수퍼차저,restaurants|wifi|shopping|beverage|restrooms,daegusupercharger.png,https://www.tesla.com/ko_kr/findus/location/supercharger/daegusupercharger
평창  -  대관령,수퍼차저,,"""25342""",강원도 평창군 경강로5754,,"https://maps.google.com/maps?daddr=37.684708,128.755859",37.684708,128.755859,긴급 출동 서비스: 080 617 1399,,충전최대 250kW로 연중 무휴 이용 가능한 8 수퍼차저,restrooms,31771.png,https://www.tesla.com/ko_kr/findus/location/supercharger/31771
대전  -  롯데백화점,수퍼차저,,"""35299""",대전광역시 계룡로598,,"https://maps.google.com/maps?daddr=36.34039,127.39054",36.34039,127.39054,긴급 출동 서비스: 080-617-1399,,충전최대 250kW로 연중 무휴 이용 가능한 6 수퍼차저,restaurants|wifi|shopping|restrooms,Daejeon.png,https://www.tesla.com/ko_kr/findus/location/supercharger/Daejeon
대구  -  이시아폴리스,수퍼차저,,"""41026""",대구 광역시 팔공로49길16,,"https://maps.google.com/maps?daddr=35.9225,128.63549",35.9225,128.63549,긴급 출동 서비스: 080 617 1399,,충전최대 250kW로 연중 무휴 이용 가능한 6 수퍼차저,,daeguhyuksinlsupercharger.png,https://www.tesla.com/ko_kr/findus/location/supercharger/daeguhyuksinlsupercharger
화성  -  동탄 그란비아스타 (무료주차 30분),수퍼차저,,"""18482""",경기도 화성시 동탄대로446,,"https://maps.google.com/maps?daddr=37.1926,127.0991",37.1926,127.0991,긴급 출동 서비스: 080 617 1399,,충전최대 250kW로 연중 무휴 이용 가능한 9 수퍼차저,restaurants|beverage|restrooms,32964.png,https://www.tesla.com/ko_kr/findus/location/supercharger/32964
화성  -  동탄 롯데백화점,수퍼차저,,"""445150""",경기도 화성시 동탄역로160,,"https://maps.google.com/maps?daddr=37.20131428,127.0969007",37.20131428,127.0969007,긴급 출동 서비스: 080 617 1399,,충전최대 250kW로 연중 무휴 이용 가능한 3 수퍼차저,restaurants|wifi|shopping|beverage|restrooms,dongtansupercharger.png,https://www.tesla.com/ko_kr/findus/location/supercharger/dongtansupercharger
용인  -  기흥 롯데프리미엄아울렛,수퍼차저,,"""17087""",경기도 용인시 신고매로124,,"https://maps.google.com/maps?daddr=37.226478,127.120191",37.226478,127.120191,긴급 출동 서비스: 080 617 1399,,충전최대 250kW로 연중 무휴 이용 가능한 6 수퍼차저,restaurants|wifi|shopping|beverage|restrooms,yonginsupercharger.png,https://www.tesla.com/ko_kr/findus/location/supercharger/yonginsupercharger
수원  -  광교 롯데아울렛,수퍼차저,,"""16508""",경기도 수원시 도청로 10,,"https://maps.google.com/maps?daddr=37.28693,127.05538",37.28693,127.05538,긴급 출동 서비스: 080 617 1399,,충전최대 250kW로 연중 무휴 이용 가능한 6 수퍼차저,restaurants|wifi|shopping|beverage|restrooms,gwanggyolakesupercharger.png,https://www.tesla.com/ko_kr/findus/location/supercharger/gwanggyolakesupercharger
동해,수퍼차저,,"""25750""",강원도 동해시 천곡동361-1,,"https://maps.google.com/maps?daddr=37.514458,129.103181",37.514458,129.103181,긴급 출동 서비스: 080 617 1399,,충전최대 250kW로 연중 무휴 이용 가능한 6 수퍼차저,restrooms,58507.png,https://www.tesla.com/ko_kr/findus/location/supercharger/58507
의왕  -  롯데 타임빌라스,수퍼차저,,"""16016""",경기도 의왕시 바라산로1,,"https://maps.google.com/maps?daddr=37.374424,127.008793",37.374424,127.008793,긴급 출동 서비스: 080 617 1399,,충전최대 250kW로 연중 무휴 이용 가능한 3 수퍼차저,restaurants|wifi|shopping|beverage|restrooms,euiwangsupercharger.png,https://www.tesla.com/ko_kr/findus/location/supercharger/euiwangsupercharger
김천  -  모다아울렛(인접 북구미하이패스 IC 진출입 가능),수퍼차저,,"""39676""",경상북도 김천시 아포대로1417,,"https://maps.google.com/maps?daddr=36.1551,128.28075",36.1551,128.28075,긴급 출동 서비스: 080 617 1399,,충전최대 250kW로 연중 무휴 이용 가능한 8 수퍼차저,shopping|beverage|restrooms,34277.png,https://www.tesla.com/ko_kr/findus/location/supercharger/34277
부여  -  롯데프리미엄아울렛,수퍼차저,,"""33115""",충청남도 부여군 백제문387,,"https://maps.google.com/maps?daddr=36.306525,126.900113",36.306525,126.900113,긴급 출동 서비스: 080 617 1399,,충전최대 250kW로 연중 무휴 이용 가능한 8 수퍼차저,restaurants|wifi|shopping|beverage|restrooms,buyeosupercharger.png,https://www.tesla.com/ko_kr/findus/location/supercharger/buyeosupercharger
진천  -  뤁스퀘어,수퍼차저,,"""27815""",충청북도 진천군 내촌리599-79,,"https://maps.google.com/maps?daddr=36.94247,127.431422",36.94247,127.431422,긴급 출동 서비스: 080 617 1399,,충전최대 250kW로 연중 무휴 이용 가능한 8 수퍼차저,,jincheonsupercharger.png,https://www.tesla.com/ko_kr/findus/location/supercharger/jincheonsupercharger
부천  -  롯데백화점,수퍼차저,,"""14548""",경기도 부천시 길주로300,,"https://maps.google.com/maps?daddr=37.5022,126.775615",37.5022,126.775615,긴급 출동 서비스: 080 617 1399,,충전최대 250kW로 연중 무휴 이용 가능한 9 수퍼차저,restaurants|wifi|shopping|beverage|restrooms,teslabucheonlottedepartmentsupercharger.png,https://www.tesla.com/ko_kr/findus/location/supercharger/teslabucheonlottedepartmentsupercharger
모다아울렛 - 충주,수퍼차저,,"""27476""",충청북도 충주시 중원대로3683,,"https://maps.google.com/maps?daddr=36.96099,127.898236",36.96099,127.898236,긴급 출동 서비스: 080 617 1399,,충전최대 250kW로 연중 무휴 이용 가능한 8 수퍼차저,restaurants|shopping|beverage|restrooms,chungjumodaoutletsupercharger.png,https://www.tesla.com/ko_kr/findus/location/supercharger/chungjumodaoutletsupercharger
부산  -  기장,수퍼차저,,"""46084""",부산광역시 기장해안로147,,"https://maps.google.com/maps?daddr=35.193,129.211",35.193,129.211,긴급 출동 서비스: 080 617 1399,,충전최대 250kW로 연중 무휴 이용 가능한 12 수퍼차저,restaurants|wifi|shopping|beverage|restrooms,busangijangsupercharger.png,https://www.tesla.com/ko_kr/findus/location/supercharger/busangijangsupercharger
모다아울렛 - 구리,수퍼차저,,"""11901""",경기도 구리시 경춘북로230,,"https://maps.google.com/maps?daddr=37.6326,127.1163",37.6326,127.1163,긴급 출동 서비스: 080 617 1399,,충전최대 250kW로 연중 무휴 이용 가능한 8 수퍼차저,restaurants|wifi|shopping|beverage|restrooms,gurisupercharger.png,https://www.tesla.com/ko_kr/findus/location/supercharger/gurisupercharger
부산  -  센텀시티,수퍼차저,,"""48058""",부산광역시 부산센텀남대로59,,"https://maps.google.com/maps?daddr=35.170259,129.130338",35.170259,129.130338,긴급 출동 서비스: 080 617 1399,,충전최대 250kW로 연중 무휴 이용 가능한 6 수퍼차저,restaurants|wifi|shopping|beverage|restrooms,teslabusanhaewondaelottedepartmentcentumcitysupercharger.png,https://www.tesla.com/ko_kr/findus/location/supercharger/teslabusanhaewondaelottedepartmentcentumcitysupercharger
부산  -  해운대 파라다이스,수퍼차저,,"""48099""",부산광역시 해운대해변로296,,"https://maps.google.com/maps?daddr=35.160676,129.163823",35.160676,129.163823,긴급 출동 서비스: 080 617 1399,,충전최대 250kW로 연중 무휴 이용 가능한 3 수퍼차저,restaurants|beverage|restrooms,busansupercharger.png,https://www.tesla.com/ko_kr/findus/location/supercharger/busansupercharger
목포,수퍼차저,,"""58662""",전라남도 목포시 옥암로95,,"https://maps.google.com/maps?daddr=34.8078,126.4261",34.8078,126.4261,긴급 출동 서비스: 080 617 1399,,충전최대 250kW로 연중 무휴 이용 가능한 8 수퍼차저,restaurants|shopping|beverage|restrooms,mokpopormocubesupercharger.png,https://www.tesla.com/ko_kr/findus/location/supercharger/mokpopormocubesupercharger
부산  -  남구 IFC,수퍼차저,,"""48400""",부산광역시 전포대로133,,"https://maps.google.com/maps?daddr=35.148269,129.065852",35.148269,129.065852,긴급 출동 서비스: 080 617 1399,,충전최대 115kW로 연중 무휴 이용 가능한 4 수퍼차저,restaurants|wifi|shopping|beverage|restrooms,busannamgusupercharger.png,https://www.tesla.com/ko_kr/findus/location/supercharger/busannamgusupercharger
부산  -  강서 대저,수퍼차저,,"""46702""",부산광역시 대저중앙로394번길32,,"https://maps.google.com/maps?daddr=35.219319,128.989468",35.219319,128.989468,긴급 출동 서비스: 080 617 1399,,충전최대 115kW로 연중 무휴 이용 가능한 6 수퍼차저,restrooms,busangangseosupercharger.png,https://www.tesla.com/ko_kr/findus/location/supercharger/busangangseosupercharger
당진  -  행담도 모다아울렛,수퍼차저,,"""31750""",충청남도 당진시 서해안고속도로 276,신평면,"https://maps.google.com/maps?daddr=36.940999,126.81087",36.940999,126.81087,긴급 출동 서비스: 080 617 1399,,충전최대 250kW로 연중 무휴 이용 가능한 8 수퍼차저,restaurants|shopping|beverage|restrooms,33026.png,https://www.tesla.com/ko_kr/findus/location/supercharger/33026
삼척  -  원더플주유소,수퍼차저,,"""25930""",강원도 삼척시 동해대로3852,,"https://maps.google.com/maps?daddr=37.429146,129.183199",37.429146,129.183199,긴급 출동 서비스: 080 617 1399,,충전최대 250kW로 연중 무휴 이용 가능한 6 수퍼차저,beverage|restrooms,35990.png,https://www.tesla.com/ko_kr/findus/location/supercharger/35990
상주,수퍼차저,,"""37132""",경상북도 상주시 경상대로4207,,"https://maps.google.com/maps?daddr=36.5159473,128.1635756",36.5159473,128.1635756,긴급 출동 서비스: 080 617 1399,,충전최대 250kW로 연중 무휴 이용 가능한 6 수퍼차저최대 115kW로 연중 무휴 이용 가능한 6 수퍼차저,restaurants|restrooms,sangjusupercharger.png,https://www.tesla.com/ko_kr/findus/location/supercharger/sangjusupercharger
부산  -  농심호텔 (주차비 여부),수퍼차저,,"""47709""",부산부산금강공원로20번길,,"https://maps.google.com/maps?daddr=35.219885,129.082823",35.219885,129.082823,긴급 출동 서비스: 080 617 1399,,충전최대 250kW로 연중 무휴 이용 가능한 6 수퍼차저,wifi|shopping|beverage|restrooms,teslabusanhotelnongshimsupercharger.png,https://www.tesla.com/ko_kr/findus/location/supercharger/teslabusanhotelnongshimsupercharger
성남  -  분당 AK 플라자,수퍼차저,,"""13591""",경기도 성남황새울로312번길 3636,,"https://maps.google.com/maps?daddr=37.3841,127.1232",37.3841,127.1232,긴급 출동 서비스: 080 617 1399,,충전최대 250kW로 연중 무휴 이용 가능한 9 수퍼차저,restaurants|shopping|beverage|restrooms,31733.png,https://www.tesla.com/ko_kr/findus/location/supercharger/31733
서울  -  왕십리,수퍼차저,,"""04750""",서울특별시 왕십리 광장로17,,"https://maps.google.com/maps?daddr=37.561708,127.037851",37.561708,127.037851,긴급 출동 서비스: 080 617 1399,,충전최대 250kW로 연중 무휴 이용 가능한 6 수퍼차저,restaurants|wifi|shopping|beverage|restrooms,seoulseongsusupercharger.png,https://www.tesla.com/ko_kr/findus/location/supercharger/seoulseongsusupercharger
부산  -  연제 서비스센터,서비스 센터|수퍼차저,,"""47568""",부산광역시 좌수영로290,,"https://maps.google.com/maps?daddr=35.188473,129.109922",35.188473,129.109922,서비스 센터 주소: 080-617-1399|긴급 출동 서비스: 080-617-1399,,충전최대 115kW로 연중 무휴 이용 가능한 4 수퍼차저,restrooms,busanservice.png,https://www.tesla.com/ko_kr/findus/location/supercharger/busanservice
서울  -  마리오아울렛,수퍼차저,,"""08511""",서울특별시 디지털로923,,"https://maps.google.com/maps?daddr=37.4777,126.8868",37.4777,126.8868,긴급 출동 서비스: 080 617 1399,,충전최대 250kW로 연중 무휴 이용 가능한 9 수퍼차저,restaurants|wifi|shopping|beverage|restrooms,geumcheonsupercharger.png,https://www.tesla.com/ko_kr/findus/location/supercharger/geumcheonsupercharger
제주  -  서귀포 롯데호텔,수퍼차저,,"""63535""",제주특별자치도 서귀포시 중문관광로 72번길35,,"https://maps.google.com/maps?daddr=33.250178,126.408832",33.250178,126.408832,긴급 출동 서비스: 080 617 1399,,충전최대 115kW로 연중 무휴 이용 가능한 12 수퍼차저,restaurants|wifi|lodging|beverage|restrooms,seogwiposupercharger.png,https://www.tesla.com/ko_kr/findus/location/supercharger/seogwiposupercharger
서울 - 강남 파르나스,수퍼차저,,,서울특별시 테헤란로521 6164,,"https://maps.google.com/maps?daddr=37.508497,127.06141",37.508497,127.06141,긴급 출동 서비스: 080 617 1399,,충전최대 115kW로 연중 무휴 이용 가능한 5 수퍼차저,restaurants|wifi|shopping|lodging|beverage|restrooms,seoulgangnamsupercharger.png,https://www.tesla.com/ko_kr/findus/location/supercharger/seoulgangnamsupercharger
서울  -  용산 그랜드하얏트,수퍼차저,,"""04347""",서울특별시 소월로322,,"https://maps.google.com/maps?daddr=37.540165,126.997168",37.540165,126.997168,긴급 출동 서비스: 080 617 1399,,충전최대 115kW로 연중 무휴 이용 가능한 4 수퍼차저,restaurants|wifi|lodging|beverage|restrooms,seoulyongsansupercharger.png,https://www.tesla.com/ko_kr/findus/location/supercharger/seoulyongsansupercharger
서울  -  구로 수퍼차저,수퍼차저,서울 - 구로 수퍼차저,"""08393""",서울 구로구  디지털로26길 38 지하 4층 주차장,,"https://maps.google.com/maps?daddr=37.47984,126.8953",37.47984,126.8953,긴급 출동 서비스: 080 617 1399,,,,gurosupercharger.png,https://www.tesla.com/ko_kr/findus/location/supercharger/gurosupercharger
서울  -  여의도 IFC,수퍼차저,,,서울특별시 국제금융로10 7326,,"https://maps.google.com/maps?daddr=37.525936,126.926784",37.525936,126.926784,긴급 출동 서비스: 080 617 1399,,충전최대 250kW로 연중 무휴 이용 가능한 4 수퍼차저,restaurants|wifi|shopping|beverage|restrooms,seoulyeouidosupercharger.png,https://www.tesla.com/ko_kr/findus/location/supercharger/seoulyeouidosupercharger
서울  -  롯데월드타워,수퍼차저,,"""05551""",서울특별시 올림픽로300,,"https://maps.google.com/maps?daddr=37.514332,127.105271",37.514332,127.105271,긴급 출동 서비스: 080 617 1399,,충전최대 115kW로 연중 무휴 이용 가능한 6 수퍼차저,restaurants|wifi|shopping|lodging|beverage|restrooms,seouljamsilsupercharger.png,https://www.tesla.com/ko_kr/findus/location/supercharger/seouljamsilsupercharger
서울  -  강남N타워,수퍼차저,,"""06133""",서울특별시 테헤란로129,,"https://maps.google.com/maps?daddr=37.499934,127.032493",37.499934,127.032493,긴급 출동 서비스: 080 617 1399,,충전최대 115kW로 연중 무휴 이용 가능한 4 수퍼차저,restaurants|beverage|restrooms,seoulteheransupercharger.png,https://www.tesla.com/ko_kr/findus/location/supercharger/seoulteheransupercharger
서울 - 압구정 (주차비 여부),수퍼차저,,"""06022""",서울특별시 논현로854,,"https://maps.google.com/maps?daddr=37.525839,127.029066",37.525839,127.029066,긴급 출동 서비스: 080 617 1399,,충전최대 115kW로 연중 무휴 이용 가능한 4 수퍼차저,restaurants|wifi|shopping|lodging|beverage|restrooms,gangnnamsupercharger.png,https://www.tesla.com/ko_kr/findus/location/supercharger/gangnnamsupercharger
서울  -  김포공항 롯데몰,수퍼차저,,"""07505""",서울특별시 하늘길38,,"https://maps.google.com/maps?daddr=37.564512,126.802096",37.564512,126.802096,긴급 출동 서비스: 080 617 1399,,충전최대 115kW로 연중 무휴 이용 가능한 4 수퍼차저,restaurants|wifi|shopping|lodging|beverage|restrooms,seoulgangseosupercharger.png,https://www.tesla.com/ko_kr/findus/location/supercharger/seoulgangseosupercharger
양양  -  설해원,수퍼차저,,"""25042""",강원도 양양군 공항로230,,"https://maps.google.com/maps?daddr=38.054268,128.660745",38.054268,128.660745,긴급 출동 서비스: 080 617 1399,,충전최대 250kW로 연중 무휴 이용 가능한 8 수퍼차저,restaurants|lodging|beverage|restrooms,yangyangsupercharger.png,https://www.tesla.com/ko_kr/findus/location/supercharger/yangyangsupercharger
성남  -  오리,수퍼차저,,,경기도 성남시 탄천상로151번길20,,"https://maps.google.com/maps?daddr=37.340248,127.106312",37.340248,127.106312,긴급 출동 서비스: 080 617 1399,,충전최대 115kW로 연중 무휴 이용 가능한 6 수퍼차저,restaurants|wifi|shopping|lodging|beverage|restrooms,bundangsupercharger.png,https://www.tesla.com/ko_kr/findus/location/supercharger/bundangsupercharger
서울  -  종각 센트로폴리스,수퍼차저,,"""03161""",서울특별시 공평동5-1,,"https://maps.google.com/maps?daddr=37.5721,126.9837",37.5721,126.9837,긴급 출동 서비스: 080 617 1399,,충전최대 250kW로 연중 무휴 이용 가능한 6 수퍼차저,restaurants|wifi|restrooms,31754.png,https://www.tesla.com/ko_kr/findus/location/supercharger/31754
서울  -  잠실 롯데월드,수퍼차저,,"""05554""",서울특별시 올림픽로240,,"https://maps.google.com/maps?daddr=37.5117,127.0947",37.5117,127.0947,긴급 출동 서비스: 080 617 1399,,충전최대 250kW로 연중 무휴 이용 가능한 6 수퍼차저,restaurants|wifi|shopping|beverage|restrooms,seoulsongpaolympicparksupercharger.png,https://www.tesla.com/ko_kr/findus/location/supercharger/seoulsongpaolympicparksupercharger
서울 - 신사,수퍼차저,,"""06027""",서울특별시 강남대로652,,"https://maps.google.com/maps?daddr=37.520127,127.019056",37.520127,127.019056,긴급 출동 서비스: 080 617 1399,,충전최대 250kW로 연중 무휴 이용 가능한 6 수퍼차저,restaurants|wifi|beverage|restrooms,gangnamsinsasupercharger.png,https://www.tesla.com/ko_kr/findus/location/supercharger/gangnamsinsasupercharger
세종  -  AK플라자,수퍼차저,,"""30116""",세종시 다솜1로20,,"https://maps.google.com/maps?daddr=36.5,127.25677",36.5,127.25677,긴급 출동 서비스: 080 617 1399,,충전최대 250kW로 연중 무휴 이용 가능한 9 수퍼차저,restaurants|wifi|shopping|beverage|restrooms,sejongsupercharger.png,https://www.tesla.com/ko_kr/findus/location/supercharger/sejongsupercharger
서울 - 센터필드,수퍼차저,,"""06142""",서울특별시 테헤란로231,,"https://maps.google.com/maps?daddr=37.503208,127.04074",37.503208,127.04074,긴급 출동 서비스: 080 617 1399,,충전최대 250kW로 연중 무휴 이용 가능한 6 수퍼차저,,seolleungsupercharger.png,https://www.tesla.com/ko_kr/findus/location/supercharger/seolleungsupercharger
서울  -  송파 소피텔,수퍼차저,,"""05552""",서울특별시 잠실로209,,"https://maps.google.com/maps?daddr=37.5134965,127.106566",37.5134965,127.106566,긴급 출동 서비스: 080 617 1399,,충전최대 250kW로 연중 무휴 이용 가능한 6 수퍼차저,restaurants|wifi|lodging|restrooms,songpasupercharger.png,https://www.tesla.com/ko_kr/findus/location/supercharger/songpasupercharger
세종 - 대평,수퍼차저,,"""30154""",세종특별자치시 종합운동장로 29,,"https://maps.google.com/maps?daddr=36.46924,127.2685",36.46924,127.2685,긴급 출동 서비스: 080 617 1399,,충전최대 250kW로 연중 무휴 이용 가능한 6 수퍼차저,restaurants|wifi|beverage|restrooms,31209.png,https://www.tesla.com/ko_kr/findus/location/supercharger/31209
속초 - 한화리조트 설악,수퍼차저,,"""24801""",강원도 속초시 미시령로 2983번길88,,"https://maps.google.com/maps?daddr=38.208,128.5268",38.208,128.5268,긴급 출동 서비스: 080 617 1399,,충전최대 250kW로 연중 무휴 이용 가능한 6 수퍼차저,restaurants|lodging|beverage|restrooms,35418.png,https://www.tesla.com/ko_kr/findus/location/supercharger/35418
속초  -  롯데리조트,수퍼차저,,"""24900""",강원도 속초시 대포항길186,,"https://maps.google.com/maps?daddr=38.180849,128.61186",38.180849,128.61186,긴급 출동 서비스: 080 617 1399,,충전최대 250kW로 연중 무휴 이용 가능한 3 수퍼차저최대 115kW로 연중 무휴 이용 가능한 4 수퍼차저,restaurants|wifi|lodging|beverage|restrooms,sokchogangwondosupercharger.png,https://www.tesla.com/ko_kr/findus/location/supercharger/sokchogangwondosupercharger
수원  -  롯데몰,수퍼차저,,"""16621""",경기도 수원시 세화로134,,"https://maps.google.com/maps?daddr=37.264394,126.995696",37.264394,126.995696,긴급 출동 서비스: 080 617 1399,,충전최대 115kW로 연중 무휴 이용 가능한 4 수퍼차저,restaurants|wifi|shopping|beverage|restrooms,suwonsupercharger.png,https://www.tesla.com/ko_kr/findus/location/supercharger/suwonsupercharger
대전 - 신탄진,수퍼차저,,"""34335""",대전광역시 신탄진로490,,"https://maps.google.com/maps?daddr=36.42368,127.419685",36.42368,127.419685,긴급 출동 서비스: 080 617 1399,,충전최대 250kW로 연중 무휴 이용 가능한 6 수퍼차저최대 115kW로 연중 무휴 이용 가능한 6 수퍼차저,beverage|restrooms,sintanjinsupercharger.png,https://www.tesla.com/ko_kr/findus/location/supercharger/sintanjinsupercharger
수원  -  영통 판타지움,수퍼차저,,"""16693""",경기도 수원시 덕영대로1566,,"https://maps.google.com/maps?daddr=37.2456,127.0624",37.2456,127.0624,긴급 출동 서비스: 080 617 1399,,충전최대 250kW로 연중 무휴 이용 가능한 8 수퍼차저,restaurants|shopping|beverage|restrooms,SuwonYeongtongsupercharger.png,https://www.tesla.com/ko_kr/findus/location/supercharger/SuwonYeongtongsupercharger
안동,수퍼차저,,"""36621""",경기도 안동시 노리212-1,,"https://maps.google.com/maps?daddr=36.590467,128.630728",36.590467,128.630728,긴급 출동 서비스: 080 617 1399,,충전최대 250kW로 연중 무휴 이용 가능한 6 수퍼차저,beverage|restrooms,31726.png,https://www.tesla.com/ko_kr/findus/location/supercharger/31726
안성,수퍼차저,,"""17595""",경기도 안성시 안성맞춤대로833,,"https://maps.google.com/maps?daddr=36.9886,127.269",36.9886,127.269,긴급 출동 서비스: 080 617 1399,,충전최대 250kW로 연중 무휴 이용 가능한 6 수퍼차저,wifi|restrooms,anseongsupercharger.png,https://www.tesla.com/ko_kr/findus/location/supercharger/anseongsupercharger
여수  -  히든베이호텔,수퍼차저,,"""59747""",전라남도 여수신월로496-25,,"https://maps.google.com/maps?daddr=34.72175,127.69938",34.72175,127.69938,긴급 출동 서비스: 080 617 1399,,충전최대 250kW로 연중 무휴 이용 가능한 8 수퍼차저,restaurants|wifi|lodging|restrooms,yeosusupercharger.png,https://www.tesla.com/ko_kr/findus/location/supercharger/yeosusupercharger
양산  -  물금 오슬로파크,수퍼차저,,"""50611""",경상남도 양산시 범구 로14,,"https://maps.google.com/maps?daddr=35.32799388,129.0131163",35.32799388,129.0131163,긴급 출동 서비스: 080 617 1399,,충전최대 250kW로 연중 무휴 이용 가능한 6 수퍼차저,restaurants|wifi|shopping|beverage|restrooms,Yangsansupercharger.png,https://www.tesla.com/ko_kr/findus/location/supercharger/Yangsansupercharger
서울  -  서초 쌍용플래티넘,수퍼차저,,"""06720""",서울특별시 서초중앙로 서초구18,,"https://maps.google.com/maps?daddr=37.48412,127.01688",37.48412,127.01688,긴급 출동 서비스: 080 617 1399,,충전최대 250kW로 연중 무휴 이용 가능한 6 수퍼차저,,seoulseochosupercharger.png,https://www.tesla.com/ko_kr/findus/location/supercharger/seoulseochosupercharger
서울 - 수유 (주차비 여부),수퍼차저,,"""01073""",서울특별시 도봉로315,,"https://maps.google.com/maps?daddr=37.63712,127.02305",37.63712,127.02305,긴급 출동 서비스: 080 617 1399,,충전최대 250kW로 연중 무휴 이용 가능한 6 수퍼차저,wifi|restrooms,suyusupercharger.png,https://www.tesla.com/ko_kr/findus/location/supercharger/suyusupercharger
인천  -  미추홀 앨리웨이,수퍼차저,,"""22101""",인천광역시 숙골로88번12,,"https://maps.google.com/maps?daddr=37.470593,126.664744",37.470593,126.664744,긴급 출동 서비스: 080 617 1399,,충전최대 250kW로 연중 무휴 이용 가능한 6 수퍼차저,restaurants|wifi|shopping|beverage|restrooms,incheonmichuholsupercharger.png,https://www.tesla.com/ko_kr/findus/location/supercharger/incheonmichuholsupercharger
성남  -  판교 카카오 아지트,수퍼차저,,"""463420""",경기도 성남시 판교역로166,,"https://maps.google.com/maps?daddr=37.3949,127.1098",37.3949,127.1098,긴급 출동 서비스: 080 617 1399,,충전최대 250kW로 연중 무휴 이용 가능한 3 수퍼차저,wifi,superchargerseongnamakr.png,https://www.tesla.com/ko_kr/findus/location/supercharger/superchargerseongnamakr
여주  -  신세계프리미엄아울렛,수퍼차저,,"""12646""",경기도 여주시 명품로360,,"https://maps.google.com/maps?daddr=37.23933758,127.61232813",37.23933758,127.61232813,긴급 출동 서비스: 080 617 1399,,충전최대 250kW로 연중 무휴 이용 가능한 8 수퍼차저,,yeojusupercharger.png,https://www.tesla.com/ko_kr/findus/location/supercharger/yeojusupercharger
인천  -  동춘 (주차비 여부),수퍼차저,,"""21979""",인천광역시 아암대로825-23,,"https://maps.google.com/maps?daddr=37.39582,126.66324",37.39582,126.66324,긴급 출동 서비스: 080 617 1399,,충전최대 250kW로 연중 무휴 이용 가능한 8 수퍼차저,,dongchunsupercharger.png,https://www.tesla.com/ko_kr/findus/location/supercharger/dongchunsupercharger
인천  -  송도 트리플스트릿,수퍼차저,,"""21984""",인천광역시 송도과학로  16번길33-4,,"https://maps.google.com/maps?daddr=37.378977,126.663346",37.378977,126.663346,긴급 출동 서비스: 080 617 1399,,충전최대 250kW로 연중 무휴 이용 가능한 8 수퍼차저,restaurants|wifi|shopping|beverage|restrooms,songdoincheonsupercharger.png,https://www.tesla.com/ko_kr/findus/location/supercharger/songdoincheonsupercharger
용인  -  포곡,수퍼차저,,"""17025""",경기도 용인시 석성로1051,,"https://maps.google.com/maps?daddr=37.27461,127.21222",37.27461,127.21222,긴급 출동 서비스: 080 617 1399,,충전최대 250kW로 연중 무휴 이용 가능한 8 수퍼차저,restrooms,31718.png,https://www.tesla.com/ko_kr/findus/location/supercharger/31718
고성  -  오션투유리조트,수퍼차저,,"""24750""",강원도 고성군 삼포해변길9,,"https://maps.google.com/maps?daddr=38.3162,128.5315",38.3162,128.5315,긴급 출동 서비스: 080 617 1399,,충전최대 250kW로 연중 무휴 이용 가능한 8 수퍼차저,restaurants|lodging|beverage|restrooms,goseongoceantoyou.png,https://www.tesla.com/ko_kr/findus/location/supercharger/goseongoceantoyou
원주  -  오크밸리,수퍼차저,,"""26357""",강원도 원주시 오크밸리1길66,,"https://maps.google.com/maps?daddr=37.435437,127.818135",37.435437,127.818135,긴급 출동 서비스: 080 617 1399,,충전최대 115kW로 연중 무휴 이용 가능한 6 수퍼차저,restaurants|wifi|lodging|beverage|restrooms,wonjusupercharger.png,https://www.tesla.com/ko_kr/findus/location/supercharger/wonjusupercharger
의정부,수퍼차저,,"""11725""",경기도 의정부시 동일로128번11,,"https://maps.google.com/maps?daddr=37.7005,127.0552",37.7005,127.0552,,,충전최대 250kW로 연중 무휴 이용 가능한 6 수퍼차저,restaurants|beverage|restrooms,Uijeongbu-Woorinara.png,https://www.tesla.com/ko_kr/findus/location/supercharger/Uijeongbu-Woorinara
서울  -  용산 드래곤시티,수퍼차저,,"""04372""",서울특별시 용산구 청파로 20길95,,"https://maps.google.com/maps?daddr=37.532244,126.961476",37.532244,126.961476,긴급 출동 서비스: 080 617 1399,,충전최대 250kW로 연중 무휴 이용 가능한 12 수퍼차저,restaurants|lodging|beverage|restrooms,31871.png,https://www.tesla.com/ko_kr/findus/location/supercharger/31871
완주 - J플라자,수퍼차저,,"""55313""",전라북도 완주군 봉동읍  봉비로23,,"https://maps.google.com/maps?daddr=35.986235,127.117592",35.986235,127.117592,긴급 출동 서비스: 080 617 1399,,충전최대 250kW로 연중 무휴 이용 가능한 8 수퍼차저,restaurants|beverage,31832.png,https://www.tesla.com/ko_kr/findus/location/supercharger/31832
고양  -  원마운트,수퍼차저,,"""300300""",경기도 일산한류월드로  10392,,"https://maps.google.com/maps?daddr=37.6661,126.7545",37.6661,126.7545,긴급 출동 서비스: 080 617 1399,,충전최대 250kW로 연중 무휴 이용 가능한 11 수퍼차저,restaurants|wifi|shopping|beverage|restrooms,goyangilsanonemount.png,https://www.tesla.com/ko_kr/findus/location/supercharger/goyangilsanonemount
장흥  -  정남진물과학관,수퍼차저,,"""59313""",전라남도 장흥군 행원강변길20,,"https://maps.google.com/maps?daddr=34.686334,126.899816",34.686334,126.899816,긴급 출동 서비스: 080 617 1399,,충전최대 250kW로 연중 무휴 이용 가능한 8 수퍼차저,beverage|restrooms,4005124.png,https://www.tesla.com/ko_kr/findus/location/supercharger/4005124
인제  -  스피디움,수퍼차저,,"""24654""",강원도 인제군 상하답로130,,"https://maps.google.com/maps?daddr=38.0051,128.2896",38.0051,128.2896,긴급 출동 서비스: 080 617 1399,,충전최대 250kW로 연중 무휴 이용 가능한 8 수퍼차저,restaurants|lodging|beverage|restrooms,injesupercharger.png,https://www.tesla.com/ko_kr/findus/location/supercharger/injesupercharger
광명  -  AK플라자,수퍼차저,,"""14345""",경기도 광명시 양지로19,,"https://maps.google.com/maps?daddr=37.4200497,126.88323331",37.4200497,126.88323331,긴급 출동 서비스: 080 617 1399,,충전최대 250kW로 연중 무휴 이용 가능한 3 수퍼차저,restaurants|wifi|shopping|beverage|restrooms,gwangmyeongsupercharger.png,https://www.tesla.com/ko_kr/findus/location/supercharger/gwangmyeongsupercharger
고양  -  일산 N2Wash,수퍼차저,,"""10433""",경기도 고양시 장항로31,,"https://maps.google.com/maps?daddr=37.630127,126.790883",37.630127,126.790883,긴급 출동 서비스: 080 617 1399,,충전최대 250kW로 연중 무휴 이용 가능한 8 수퍼차저,,ilsansupercharger.png,https://www.tesla.com/ko_kr/findus/location/supercharger/ilsansupercharger
임실  -  치즈테마파크,수퍼차저,,,전라남도 임실군 성수면 도인2길50,,"https://maps.google.com/maps?daddr=35.631137,127.304125",35.631137,127.304125,긴급 출동 서비스: 080 617 1399,,충전최대 250kW로 연중 무휴 이용 가능한 6 수퍼차저,restaurants|shopping|beverage|restrooms,imsilcheesepark.png,https://www.tesla.com/ko_kr/findus/location/supercharger/imsilcheesepark
전주  -  효자,수퍼차저,,"""55056""",전라북도 전주시 용머리 로45,,"https://maps.google.com/maps?daddr=35.80718,127.11521",35.80718,127.11521,긴급 출동 서비스: 080 617 1399,,충전최대 250kW로 연중 무휴 이용 가능한 8 수퍼차저,restaurants|wifi|shopping|beverage|restrooms,jeonjusupercharger.png,https://www.tesla.com/ko_kr/findus/location/supercharger/jeonjusupercharger
전주  -  미곡로스터리,수퍼차저,,"""55026""",전라북도 전주시 덕진구 금상길10,,"https://maps.google.com/maps?daddr=35.841791,127.173108",35.841791,127.173108,,,충전최대 250kW로 연중 무휴 이용 가능한 4 수퍼차저,beverage|restrooms,32984.png,https://www.tesla.com/ko_kr/findus/location/supercharger/32984
제천  -  남제천IC 만남의광장,수퍼차저,,"""27209""",충청북도 제천시 청풍호로741,,"https://maps.google.com/maps?daddr=37.072709,128.191809",37.072709,128.191809,긴급 출동 서비스: 080 617 1399,,충전최대 250kW로 연중 무휴 이용 가능한 8 수퍼차저,beverage|restrooms,jecheonsupercharger.png,https://www.tesla.com/ko_kr/findus/location/supercharger/jecheonsupercharger
인천  -  청라 스퀘어7,수퍼차저,,"""22761""",인천광역시 청라루비로76,,"https://maps.google.com/maps?daddr=37.53224,126.64085",37.53224,126.64085,긴급 출동 서비스: 080 617 1399,,충전최대 250kW로 연중 무휴 이용 가능한 8 수퍼차저,restaurants|wifi|shopping|beverage|restrooms,cheongnasupercharger.png,https://www.tesla.com/ko_kr/findus/location/supercharger/cheongnasupercharger
제주  -  테슬라스토어,스토어와 갤러리|수퍼차저,,"""63145""",제주도 제주시 오라삼동2108,,"https://maps.google.com/maps?daddr=33.493033,126.50698",33.493033,126.50698,스토어: 064-786-0310|긴급 출동 서비스: 080 617 1399,월요일 10:00am - 7:00pm|화요일 10:00am - 7:00pm|수요일 10:00am - 7:00pm|목요일 10:00am - 7:00pm|금요일 10:00am - 7:00pm|토요일 10:00am - 7:00pm|일요일 10:00am - 7:00pm|,충전최대 250kW로 연중 무휴 이용 가능한 8 수퍼차저,wifi|shopping|restrooms,JejuStore.png,https://www.tesla.com/ko_kr/findus/location/supercharger/JejuStore
천안  -  중앙교회,수퍼차저,,"""31080""",충청남도 천안부대중앙길27,,"https://maps.google.com/maps?daddr=36.841242,127.15128",36.841242,127.15128,긴급 출동 서비스: 080 617 1399,,충전최대 250kW로 연중 무휴 이용 가능한 6 수퍼차저,beverage|restrooms,cheonancentralchurch.png,https://www.tesla.com/ko_kr/findus/location/supercharger/cheonancentralchurch
청도,수퍼차저,,"""38335""",경상북도 청도군 새마을로1376,,"https://maps.google.com/maps?daddr=35.6542384,128.749192",35.6542384,128.749192,긴급 출동 서비스: 080 617 1399,,충전최대 250kW로 연중 무휴 이용 가능한 6 수퍼차저,restaurants|beverage|restrooms,cheongdosupercharger.png,https://www.tesla.com/ko_kr/findus/location/supercharger/cheongdosupercharger
창원  -  상남,수퍼차저,,"""51494""",경상남도 창원시 중앙대로100번길13,,"https://maps.google.com/maps?daddr=35.22269,128.68126",35.22269,128.68126,긴급 출동 서비스: 080 617 1399,,충전최대 250kW로 연중 무휴 이용 가능한 6 수퍼차저,beverage|restrooms,changwonsupercharger.png,https://www.tesla.com/ko_kr/findus/location/supercharger/changwonsupercharger
청주  -  율량,수퍼차저,,"""28321""",충청북도 청주시 율량로191,,"https://maps.google.com/maps?daddr=36.66561,127.499413",36.66561,127.499413,긴급 출동 서비스: 080 617 1399,,충전최대 250kW로 연중 무휴 이용 가능한 8 수퍼차저,restaurants|wifi|shopping|beverage|restrooms,cheongjusupercharger.png,https://www.tesla.com/ko_kr/findus/location/supercharger/cheongjusupercharger
진주  -  롯데몰,수퍼차저,,"""52851""",경상남도 진주시 동진로440,,"https://maps.google.com/maps?daddr=35.179851,128.140426",35.179851,128.140426,긴급 출동 서비스: 080 617 1399,,충전최대 250kW로 연중 무휴 이용 가능한 9 수퍼차저,restaurants|wifi|shopping|beverage|restrooms,jinjusksupercharger.png,https://www.tesla.com/ko_kr/findus/location/supercharger/jinjusksupercharger
인천  -  연수,수퍼차저,,"""21959""",인천광역시 연수구 능허대로16,,"https://maps.google.com/maps?daddr=37.429564,126.636924",37.429564,126.636924,긴급 출동 서비스: 0806171399,,충전최대 250kW로 연중 무휴 이용 가능한 6 수퍼차저,restaurants|beverage|restrooms,32543.png,https://www.tesla.com/ko_kr/findus/location/supercharger/32543
서울 - 타임스트림 (30분 무료주차),수퍼차저,,"""08777""",서울특별시 신림로330,,"https://maps.google.com/maps?daddr=37.4836,126.9302",37.4836,126.9302,긴급 출동 서비스: 080 617 1399,,충전최대 250kW로 연중 무휴 이용 가능한 6 수퍼차저,restaurants|wifi|shopping|beverage|restrooms,seoultimesstreamsupercharger.png,https://www.tesla.com/ko_kr/findus/location/supercharger/seoultimesstreamsupercharger
춘천  -  ENTA2022,수퍼차저,,"""24326""",강원도 춘천시 후석로120,,"https://maps.google.com/maps?daddr=37.8636,127.7477",37.8636,127.7477,긴급 출동 서비스: 080 617 1399,,충전최대 250kW로 연중 무휴 이용 가능한 6 수퍼차저,restaurants|wifi|shopping|beverage|restrooms,chuncheonsupercharger.png,https://www.tesla.com/ko_kr/findus/location/supercharger/chuncheonsupercharger
서울  -  청량리,수퍼차저,,"""02555""",서울특별시 왕산로214,,"https://maps.google.com/maps?daddr=37.58149,127.04811",37.58149,127.04811,긴급 출동 서비스: 080 617 1399,,충전최대 250kW로 연중 무휴 이용 가능한 3 수퍼차저,restaurants|wifi|shopping|beverage|restrooms,Misasupercharger.png,https://www.tesla.com/ko_kr/findus/location/supercharger/Misasupercharger
김포  -  구래,수퍼차저,,"""10066""",경기도 김포시 김포한강4로487,,"https://maps.google.com/maps?daddr=37.6462482,126.63086",37.6462482,126.63086,긴급 출동 서비스: 080 617 1399,,충전최대 250kW로 연중 무휴 이용 가능한 6 수퍼차저,restaurants|beverage|restrooms,gimposupercharger.png,https://www.tesla.com/ko_kr/findus/location/supercharger/gimposupercharger
성남  -  판교 테크원,수퍼차저,,"""463420""",경기도 성남시 백현동534,,"https://maps.google.com/maps?daddr=37.395042,127.112652",37.395042,127.112652,긴급 출동 서비스: 080 617 1399,,충전최대 250kW로 연중 무휴 이용 가능한 3 수퍼차저,restaurants|beverage|restrooms,seongnamalphadome2supercharger.png,https://www.tesla.com/ko_kr/findus/location/supercharger/seongnamalphadome2supercharger
성남  -  판교 디테라스,수퍼차저,,"""13488""",경기도 성남시 삼평동691,,"https://maps.google.com/maps?daddr=37.403923,127.108918",37.403923,127.108918,긴급 출동 서비스: 080 617 1399,,충전최대 250kW로 연중 무휴 이용 가능한 9 수퍼차저,restaurants|beverage|restrooms,32969.png,https://www.tesla.com/ko_kr/findus/location/supercharger/32969
평택  -  송탄,수퍼차저,,"""17738""",경기도 평택시 청원로1409,,"https://maps.google.com/maps?daddr=37.0523491,127.07972421",37.0523491,127.07972421,긴급 출동 서비스: 080 617 1399,,충전최대 250kW로 연중 무휴 이용 가능한 8 수퍼차저,restrooms,pyeongtaeksupercharger.png,https://www.tesla.com/ko_kr/findus/location/supercharger/pyeongtaeksupercharger
서울  -  강북 파라스파라,수퍼차저,,"""01000""",서울특별시 삼양로689 파라스파라 서울,,"https://maps.google.com/maps?daddr=37.66417,127.01175",37.66417,127.01175,긴급 출동 서비스: 080 617 1399,,충전최대 250kW로 연중 무휴 이용 가능한 6 수퍼차저,restaurants|wifi|lodging|beverage|restrooms,gangbuksupercharger.png,https://www.tesla.com/ko_kr/findus/location/supercharger/gangbuksupercharger
파주  -  뮌스터담,수퍼차저,,"""113175""",경기도 파주시 운정로  10911,,"https://maps.google.com/maps?daddr=37.724354,126.782817",37.724354,126.782817,긴급 출동 서비스: 080 617 1399,,충전최대 250kW로 연중 무휴 이용 가능한 8 수퍼차저,restaurants|wifi|beverage|restrooms,superchargerpajumunsterdam.png,https://www.tesla.com/ko_kr/findus/location/supercharger/superchargerpajumunsterdam
하동,수퍼차저,,"""52344""",경상남도 하동군 진교리426-12,,"https://maps.google.com/maps?daddr=35.0301,127.9039",35.0301,127.9039,긴급 출동 서비스: 080 617 1399,,충전최대 250kW로 연중 무휴 이용 가능한 8 수퍼차저,restaurants|restrooms,hadongupercharger.png,https://www.tesla.com/ko_kr/findus/location/supercharger/hadongupercharger
포항  -  오토파크,수퍼차저,,"""37653""",경상북도 포항시 동해대로870,,"https://maps.google.com/maps?daddr=36.057153,129.319511",36.057153,129.319511,긴급 출동 서비스: 080 617 1399,,충전최대 250kW로 연중 무휴 이용 가능한 12 수퍼차저,restaurants|beverage|restrooms,pohangsupercharger.png,https://www.tesla.com/ko_kr/findus/location/supercharger/pohangsupercharger
평창  -  휘닉스,수퍼차저,,"""25306""",강원도 평창군 봉평면 태기로106,,"https://maps.google.com/maps?daddr=37.586293,128.322665",37.586293,128.322665,긴급 출동 서비스: 080 617 1399,,충전최대 250kW로 연중 무휴 이용 가능한 9 수퍼차저,restaurants|wifi|lodging|beverage,pyeongchangsupercharger.png,https://www.tesla.com/ko_kr/findus/location/supercharger/pyeongchangsupercharger
충주  -  대소원 홈마트,수퍼차저,,"""27465""",충청북도 충주시 기업도 시로26,,"https://maps.google.com/maps?daddr=37.0015,127.83402",37.0015,127.83402,긴급 출동 서비스: 080 617 1399,,충전최대 250kW로 연중 무휴 이용 가능한 8 수퍼차저,,chungjusupercharger.png,https://www.tesla.com/ko_kr/findus/location/supercharger/chungjusupercharger
순천  -  조례동,수퍼차저,,"""540964""",전라남도 순천시 조례동640,,"https://maps.google.com/maps?daddr=34.9634,127.5257",34.9634,127.5257,긴급 출동 서비스: 080 617 1399,,충전최대 250kW로 연중 무휴 이용 가능한 8 수퍼차저,restaurants|beverage|restrooms,suncheonsupercharger.png,https://www.tesla.com/ko_kr/findus/location/supercharger/suncheonsupercharger
하남  -  스타필드,수퍼차저,,"""12942""",경기도 하남시 미사대로750,,"https://maps.google.com/maps?daddr=37.54454,127.226179",37.54454,127.226179,긴급 출동 서비스: 080 617 1399,,충전최대 115kW로 연중 무휴 이용 가능한 6 수퍼차저,restaurants|wifi|shopping|beverage|restrooms,hanamsupercharger.png,https://www.tesla.com/ko_kr/findus/location/supercharger/hanamsupercharger
화성  -  발안,수퍼차저,,"""18595""",경기도 화성시 서해로806,,"https://maps.google.com/maps?daddr=37.134039,126.89572",37.134039,126.89572,긴급 출동 서비스: 080 617 1399,,충전최대 250kW로 연중 무휴 이용 가능한 6 수퍼차저,,hwasungsupercharger.png,https://www.tesla.com/ko_kr/findus/location/supercharger/hwasungsupercharger
